NORAD_CAT_ID,OBJECT_NAME,OBJECT_TYPE,EPOCH,MEAN_MOTION,ECCENTRICITY,INCLINATION,RA_OF_ASC_NODE,ARG_OF_PERICENTER,MEAN_ANOMALY,BSTAR,MEAN_MOTION_DOT,MEAN_MOTION_DDOT,TLE_LINE0,TLE_LINE1,TLE_LINE2,SEMIMAJOR_AXIS,PERIOD,APOGEE,PERIGEE,DECAYED
49154.0,STARLINK-3068,PAYLOAD,2023-05-14 21:17:11,14.98333913,0.0002966,70.0,350.9458,265.8688,94.2132,-4.9112e-05,-6.79e-06,0.0,0 STARLINK-3068,1 49154U 21082AA  23134.88694423 -.00000679  00000-0 -49112-4 0  9998,2 49154  70.0000 350.9458 0002966 265.8688  94.2132 14.98333913 93290,6950.181,96.107,574.107,569.984,0.0
49154.0,STARLINK-3068,PAYLOAD,2023-05-15 13:18:32,14.98357034,0.0002571,69.9998,349.262,267.8593,92.2271,-0.00038492,-4.686e-05,0.0,0 STARLINK-3068,1 49154U 21082AA  23135.55454256 -.00004686  00000-0 -38492-3 0  9991,2 49154  69.9998 349.2620 0002571 267.8593  92.2271 14.98357034 93397,6950.109,96.105,573.761,570.187,0.0
49154.0,STARLINK-3068,PAYLOAD,2023-05-15 21:19:12,14.98329878,0.0003004,69.9995,348.4198,269.3002,90.7813,2.8784e-05,2.5e-06,0.0,0 STARLINK-3068,1 49154U 21082AA  23135.88834371  .00000250  00000-0  28784-4 0  9992,2 49154  69.9995 348.4198 0003004 269.3002  90.7813 14.98329878 93445,6950.193,96.107,574.146,569.97,0.0
49154.0,STARLINK-3068,PAYLOAD,2023-05-16 00:31:28,14.98352622,0.0002684,69.9995,348.0832,269.3068,90.7783,-0.00039136,-4.762e-05,0.0,0 STARLINK-3068,1 49154U 21082AA  23136.02185891 -.00004762  00000-0 -39136-3 0  9991,2 49154  69.9995 348.0832 0002684 269.3068  90.7783 14.98352622 93462,6950.123,96.106,573.853,570.123,0.0
49154.0,STARLINK-3068,PAYLOAD,2023-05-16 13:20:33,14.98329302,0.000302,69.9998,346.7374,265.7199,94.3615,3.7677e-05,3.57e-06,0.0,0 STARLINK-3068,1 49154U 21082AA  23136.55594345  .00000357  00000-0  37677-4 0  9990,2 49154  69.9998 346.7374 0003020 265.7199  94.3615 14.98329302 93543,6950.195,96.107,574.159,569.961,0.0
49154.0,STARLINK-3068,PAYLOAD,2023-05-17 19:47:06,14.98329339,0.0003073,69.9995,343.5384,267.6428,92.4379,2.0094e-05,1.47e-06,0.0,0 STARLINK-3068,1 49154U 21082AA  23137.82438306  .00000147  00000-0  20094-4 0  9997,2 49154  69.9995 343.5384 0003073 267.6428  92.4379 14.98329339 93737,6950.195,96.107,574.196,569.924,0.0
49154.0,STARLINK-3068,PAYLOAD,2023-05-17 21:23:14,14.98329406,0.000307,69.9994,343.37,267.639,92.4417,2.045e-05,1.51e-06,0.0,0 STARLINK-3068,1 49154U 21082AA  23137.89114302  .00000151  00000-0  20450-4 0  9992,2 49154  69.9994 343.3700 0003070 267.6390  92.4417 14.98329406 93740,6950.195,96.107,574.193,569.926,0.0
49154.0,STARLINK-3068,PAYLOAD,2023-05-18 11:48:27,14.98328978,0.0003001,69.9994,341.8537,263.9455,96.1362,1.1615e-05,4.6e-07,0.0,0 STARLINK-3068,1 49154U 21082AA  23138.49198322  .00000046  00000-0  11615-4 0  9999,2 49154  69.9994 341.8537 0003001 263.9455  96.1362 14.98328978 93839,6950.196,96.107,574.147,569.975,0.0
49154.0,STARLINK-3068,PAYLOAD,2023-05-18 19:49:07,14.98328674,0.0003091,69.9992,341.0124,266.6862,93.3943,-1.8099e-05,-3.09e-06,0.0,0 STARLINK-3068,1 49154U 21082AA  23138.82578443 -.00000309  00000-0 -18099-4 0  9999,2 49154  69.9992 341.0124 0003091 266.6862  93.3943 14.98328674 93884,6950.197,96.107,574.21,569.914,0.0
49154.0,STARLINK-3068,PAYLOAD,2023-05-19 21:27:16,14.9833012,0.0003184,69.999,338.3195,269.4417,90.6377,1.2129e-05,5.2e-07,0.0,0 STARLINK-3068,1 49154U 21082AA  23139.89394301  .00000052  00000-0  12129-4 0  9997,2 49154  69.9990 338.3195 0003184 269.4417  90.6377 14.98330120 94048,6950.193,96.107,574.27,569.845,0.0
49154.0,STARLINK-3068,PAYLOAD,2023-05-19 23:03:24,14.98330539,0.0003151,69.9991,338.1513,269.2664,90.8134,1.7885e-05,1.2e-06,0.0,0 STARLINK-3068,1 49154U 21082AA  23139.96070261  .00000120  00000-0  17885-4 0  9991,2 49154  69.9991 338.1513 0003151 269.2664  90.8134 14.98330539 94055,6950.191,96.107,574.246,569.866,0.0
49154.0,STARLINK-3068,PAYLOAD,2023-05-20 19:53:08,14.9833709,0.0003147,69.999,335.9626,269.467,90.6129,9.7652e-05,1.073e-05,0.0,0 STARLINK-3068,1 49154U 21082AA  23140.82857515  .00001073  00000-0  97652-4 0  9991,2 49154  69.9990 335.9626 0003147 269.4670  90.6129 14.98337090 94183,6950.171,96.107,574.223,569.849,0.0
49154.0,STARLINK-3068,PAYLOAD,2023-05-20 23:05:24,14.9833878,0.000311,69.9991,335.6258,269.4152,90.6651,0.00011,1.22e-05,0.0,0 STARLINK-3068,1 49154U 21082AA  23140.96209315  .00001220  00000-0  11000-3 0  9991,2 49154  69.9991 335.6258 0003110 269.4152  90.6651 14.98338780 94207,6950.166,96.106,574.192,569.869,0.0
49154.0,STARLINK-3068,PAYLOAD,2023-05-21 15:06:46,14.98324509,0.0002967,69.9995,333.9427,268.8487,91.2332,-3.9795e-05,-5.68e-06,0.0,0 STARLINK-3068,1 49154U 21082AA  23141.62970598 -.00000568  00000-0 -39795-4 0  9991,2 49154  69.9995 333.9427 0002967 268.8487  91.2332 14.98324509 94301,6950.21,96.107,574.137,570.013,0.0
49154.0,STARLINK-3068,PAYLOAD,2023-05-21 19:55:10,14.98322688,0.0002945,69.9995,333.438,267.9103,92.1719,-5.3242e-05,-7.28e-06,0.0,0 STARLINK-3068,1 49154U 21082AA  23141.82998813 -.00000728  00000-0 -53242-4 0  9994,2 49154  69.9995 333.4380 0002945 267.9103  92.1719 14.98322688 94333,6950.216,96.107,574.127,570.034,0.0
49154.0,STARLINK-3068,PAYLOAD,2023-05-22 11:56:31,14.98335496,0.0003145,69.9989,331.7545,267.9108,92.1691,-3.8696e-05,-5.55e-06,0.0,0 STARLINK-3068,1 49154U 21082AA  23142.49758146 -.00000555  00000-0 -38696-4 0  9995,2 49154  69.9989 331.7545 0003145 267.9108  92.1691 14.98335496 94439,6950.176,96.107,574.227,569.855,0.0
49154.0,STARLINK-3068,PAYLOAD,2023-05-22 15:08:47,14.98335292,0.0003149,69.9989,331.4178,267.9015,92.1783,-3.8075e-05,-5.47e-06,0.0,0 STARLINK-3068,1 49154U 21082AA  23142.63110115 -.00000547  00000-0 -38075-4 0  9991,2 49154  69.9989 331.4178 0003149 267.9015  92.1783 14.98335292 94457,6950.177,96.107,574.23,569.853,0.0
49154.0,STARLINK-3068,PAYLOAD,2023-05-22 16:44:55,14.98335235,0.000315,69.9989,331.2494,267.9046,92.1752,-3.6919e-05,-5.34e-06,0.0,0 STARLINK-3068,1 49154U 21082AA  23142.69786097 -.00000534  00000-0 -36919-4 0  9996,2 49154  69.9989 331.2494 0003150 267.9046  92.1752 14.98335235 94466,6950.177,96.107,574.231,569.852,0.0
49154.0,STARLINK-3068,PAYLOAD,2023-05-23 18:23:04,14.9832805,0.0003247,69.9986,328.5558,270.3155,89.7632,0.00011737,1.308e-05,0.0,0 STARLINK-3068,1 49154U 21082AA  23143.76602022  .00001308  00000-0  11737-3 0  9998,2 49154  69.9986 328.5558 0003247 270.3155  89.7632 14.98328050 94623,6950.199,96.107,574.321,569.807,0.0
49154.0,STARLINK-3068,PAYLOAD,2023-05-23 19:59:12,14.98328428,0.0003236,69.9986,328.3875,270.4927,89.5862,0.00011945,1.332e-05,0.0,0 STARLINK-3068,1 49154U 21082AA  23143.83277999  .00001332  00000-0  11945-3 0  9995,2 49154  69.9986 328.3875 0003236 270.4927  89.5862 14.98328428 94632,6950.198,96.107,574.312,569.814,0.0
49154.0,STARLINK-3068,PAYLOAD,2023-05-24 15:12:49,14.98329062,0.000318,69.9987,326.3672,271.6386,88.4409,-8.8926e-06,-1.99e-06,0.0,0 STARLINK-3068,1 49154U 21082AA  23144.63390327 -.00000199  00000-0 -88926-5 0  9992,2 49154  69.9987 326.3672 0003180 271.6386  88.4409 14.98329062 94759,6950.196,96.107,574.271,569.851,0.0
49154.0,STARLINK-3068,PAYLOAD,2023-05-25 18:27:05,14.98333711,0.0003239,69.9989,323.5056,272.0212,88.0576,-9.3732e-07,-1.04e-06,0.0,0 STARLINK-3068,1 49154U 21082AA  23145.76881859 -.00000104  00000-0 -93732-6 0  9990,2 49154  69.9989 323.5056 0003239 272.0212  88.0576 14.98333711 94920,6950.181,96.107,574.298,569.795,0.0
49154.0,STARLINK-3068,PAYLOAD,2023-05-25 21:39:21,14.98335248,0.0003229,69.9989,323.1689,272.1026,87.9763,1.6207e-05,1e-06,0.0,0 STARLINK-3068,1 49154U 21082AA  23145.90233670  .00000100  00000-0  16207-4 0  9992,2 49154  69.9989 323.1689 0003229 272.1026  87.9763 14.98335248 94946,6950.177,96.107,574.286,569.797,0.0
49154.0,STARLINK-3068,PAYLOAD,2023-05-26 13:40:42,14.98327811,0.0003186,69.9992,321.4857,272.8551,87.2244,8.9456e-06,1.4e-07,0.0,0 STARLINK-3068,1 49154U 21082AA  23146.56994117  .00000014  00000-0  89456-5 0  9996,2 49154  69.9992 321.4857 0003186 272.8551  87.2244 14.98327811 95046,6950.2,96.107,574.279,569.85,0.0
49154.0,STARLINK-3068,PAYLOAD,2023-05-26 18:29:07,14.98327757,0.0003195,69.9991,320.9805,272.4364,87.6429,2.4067e-06,-6.4e-07,0.0,0 STARLINK-3068,1 49154U 21082AA  23146.77022156 -.00000064  00000-0  24067-5 0  9997,2 49154  69.9991 320.9805 0003195 272.4364  87.6429 14.98327757 95071,6950.2,96.107,574.285,569.844,0.0
49154.0,STARLINK-3068,PAYLOAD,2023-05-26 21:41:23,14.98329109,0.0003182,69.9992,320.6437,272.2901,87.7893,1.7134e-05,1.11e-06,0.0,0 STARLINK-3068,1 49154U 21082AA  23146.90374032  .00000111  00000-0  17134-4 0  9993,2 49154  69.9992 320.6437 0003182 272.2901  87.7893 14.98329109 95092,6950.196,96.107,574.272,569.849,0.0
49154.0,STARLINK-3068,PAYLOAD,2023-05-27 20:07:15,14.9833233,0.0003118,69.9993,318.2879,265.5173,94.563,2.1871e-06,-6.7e-07,0.0,0 STARLINK-3068,1 49154U 21082AA  23147.83837758 -.00000067  00000-0  21871-5 0  9990,2 49154  69.9993 318.2879 0003118 265.5173  94.5630 14.98332330 95232,6950.186,96.107,574.218,569.884,0.0
49154.0,STARLINK-3068,PAYLOAD,2023-05-27 21:43:23,14.98332251,0.0003127,69.9993,318.1195,266.0624,94.0178,1.218e-06,-7.8e-07,0.0,0 STARLINK-3068,1 49154U 21082AA  23147.90513758 -.00000078  00000-0  12180-5 0  9994,2 49154  69.9993 318.1195 0003127 266.0624  94.0178 14.98332251 95244,6950.186,96.107,574.224,569.878,0.0
49154.0,STARLINK-3068,PAYLOAD,2023-05-28 04:07:56,14.98330631,0.0003205,69.9991,317.4452,269.943,90.1362,8.6682e-06,1e-07,0.0,0 STARLINK-3068,1 49154U 21082AA  23148.17217820  .00000010  00000-0  86682-5 0  9998,2 49154  69.9991 317.4452 0003205 269.9430  90.1362 14.98330631 95280,6950.191,96.107,574.283,569.828,0.0
49154.0,STARLINK-3068,PAYLOAD,2023-05-28 20:09:16,14.98331674,0.0003194,69.999,315.7619,269.6382,90.4411,5.1367e-05,5.2e-06,0.0,0 STARLINK-3068,1 49154U 21082AA  23148.83977624  .00000520  00000-0  51367-4 0  9993,2 49154  69.9990 315.7619 0003194 269.6382  90.4411 14.98331674 95382,6950.188,96.107,574.273,569.833,0.0
